OBJECTID_1,OBJECTID,SitRecID,Region,Country,ISO3,NatName,IntName,FinCode,SitLat,SitLong,SitArea,Protect,Num_PAs,IbaStatus,KbaStatus,AzeStatus,CREATEDBY,ADDEDBY,ADDEDDATE,CHANGEBY,CHANGEDATE,Query,SOURCE,DELTXT,DELGEOM,MarineIBA,Shape_Leng,Shape_Area,Lat_DD,Lon_DD,area,perimeter
5122,6296,14517,South America,Ecuador,ECU,Reserva Ecolgica Cofn-Bermejo,Reserva Ecolgica Cofn-Bermejo,EC048,0.30000,-77.40000,55451,Whole,1,confirmed,,,,"Gill Bunting, BirdLife International",2009/10/09,,,-1,IBA Directory Process,Recieved from Partner via Regional Office,Refined polygon,,1.03229,0.04261,0.29233,-77.36678,524076470.487305,117363.20322483
5123,6297,14518,South America,Ecuador,ECU,Isla de la Plata,Isla de la Plata,EC016,-1.26667,-81.06667,1420,Whole,1,confirmed,,,,"Gill Bunting, BirdLife International",2009/10/09,,,0,IBA Directory Process,Recieved from Partner via Regional Office,Refined polygon,Y,0.09819,0.00052,-1.27073,-81.06103,6421953.17529297,10896.9200233531
5124,6298,14519,South America,Ecuador,ECU,Estacin Cientfica Pedro Franco Dvila,Estacin Cientfica Pedro Franco Dvila,EC023,-1.33333,-79.58333,138,Whole,1,confirmed,,,,"Gill Bunting, BirdLife International",2009/10/09,,,-1,IBA Directory Process,Recieved from Partner via Regional Office,Refined polygon,,0.06013,0.00017,-1.33208,-79.58652,2065407.46289062,6671.00969548487
5125,6299,14520,South America,Ecuador,ECU,Estacin Biolgica Guandera-Cerro Mongus,Estacin Biolgica Guandera-Cerro Mongus,EC046,0.60000,-77.70000,12000,Unknown,1,confirmed,,,,"Gill Bunting, BirdLife International",2009/10/09,,,-1,IBA Directory Process,Recieved from Partner via Regional Office,Refined polygon,,0.77267,0.00991,0.55910,-77.68661,122171692.657715,87243.0179119688
5126,6300,14521,South America,Ecuador,ECU,Reserva Biolgica Tito Santos,Reserva Biolgica Tito Santos,EC011,-0.15000,-80.20000,2000,Whole,1,confirmed,,,,"Gill Bunting, BirdLife International",2009/10/09,,,-1,IBA Directory Process,Recieved from Partner via Regional Office,Refined polygon,,0.15052,0.00115,-0.15324,-80.19698,14117688.2792969,16710.0135598812
5127,6301,14524,South America,Ecuador,ECU,El ngel-Cerro Golondrinas,El ngel-Cerro Golondrinas,EC036,0.80000,-78.01667,17120,Unknown,2,confirmed,,,,"Gill Bunting, BirdLife International",2009/10/09,,,-1,IBA Directory Process,Recieved from Partner via Regional Office,Refined polygon,,1.21090,0.03605,0.78198,-78.01005,400336175.921875,127712.014957709
5128,6302,14525,South America,Ecuador,ECU,Reserva Ecolgica Arenillas,Reserva Ecolgica Arenillas,EC035,-3.51000,-80.14000,17082,Whole,1,confirmed,,,,"Gill Bunting, BirdLife International",2009/10/09,,,-1,IBA Directory Process,Recieved from Partner via Regional Office,Refined polygon,,0.69607,0.01408,-3.52270,-80.13468,172920662.256836,77075.6432842055
5129,6303,14526,South America,Ecuador,ECU,Reserva Buenaventura,Reserva Buenaventura,EC071,-3.66000,-79.77000,300,Unknown,1,confirmed,,,,"Gill Bunting, BirdLife International",2009/10/09,,,-1,IBA Directory Process,Recieved from Partner via Regional Office,Refined polygon,,0.09330,0.00028,-3.65775,-79.76745,3452310.95947266,10338.7340290943
5130,6304,14528,South America,Ecuador,ECU,Centro Cientfico Ro Palenque,Centro Cientfico Ro Palenque,EC012,-0.58333,-79.36667,167,Whole,1,confirmed,,,,"Gill Bunting, BirdLife International",2009/10/09,,,-1,IBA Directory Process,Recieved from Partner via Regional Office,Refined polygon,,0.03883,0.00007,-0.58347,-79.36821,903586.205078125,4305.32677229087
5131,6305,14530,South America,Ecuador,ECU,Reserva Ecolgica Comunal Loma Alta,Reserva Ecolgica Comunal Loma Alta,EC018,-1.86667,-80.63333,6000,Whole,2,confirmed,,,,"Gill Bunting, BirdLife International",2009/10/09,,,-1,IBA Directory Process,Recieved from Partner via Regional Office,Refined polygon,,0.41711,0.00557,-1.86614,-80.62513,68527340.0200195,46226.2661755263
5132,6306,14531,South America,Ecuador,ECU,Bosque Protector Los Cedros,Bosque Protector Los Cedros,EC039,0.30000,-78.76667,6400,Whole,1,confirmed,,,,"Gill Bunting, BirdLife International",2009/10/09,,,-1,IBA Directory Process,Recieved from Partner via Regional Office,Refined polygon,,1.03617,0.00971,0.30828,-78.78470,9379410.68408203,75021.4154619735
5133,6307,14532,South America,Ecuador,ECU,Reserva Ecolgica Mache-Chindul,Mache Chindul Ecological Reserve and surrouding areas (Reserva Ecolgica Mache-Chindul IBA),EC008,0.41000,-79.80000,119172,Whole,2,confirmed,confirmed,confirmed,,"Gill Bunting, BirdLife International",2009/10/09,,,-1,IBA Directory Process,Recieved from Partner via Regional Office,Refined polygon,,2.76585,0.09865,0.41839,-79.80234,1213759857.14355,306854.806458338
5134,6308,14533,South America,Ecuador,ECU,Bosque Protector Dudas-Mazar,Bosque Protector Dudas-Mazar,EC062,-2.60000,-78.70000,75000,Unknown,2,confirmed,,,,"Gill Bunting, BirdLife International",2009/10/09,,,-1,IBA Directory Process,Recieved from Partner via Regional Office,Refined polygon,,1.20489,0.05712,-2.59786,-78.75259,661206973.358398,199756.679417361
5135,6309,14534,South America,Ecuador,ECU,Maquipucuna-Ro Guayllabamba,Maquipucuna-Ro Guayllabamba,EC042,0.06667,-78.61667,19728,Most,2,confirmed,,,,"Gill Bunting, BirdLife International",2009/10/09,,,-1,IBA Directory Process,Recieved from Partner via Regional Office,Refined polygon,,0.80873,0.01605,0.10949,-78.62197,160380034.705566,85807.2248155635
5136,6310,14536,South America,Ecuador,ECU,Bosque Protector Puyango,Bosque Protector Puyango,EC073,-3.88333,-80.08333,2659,Whole,1,confirmed,,,,"Gill Bunting, BirdLife International",2009/10/09,,,-1,IBA Directory Process,Recieved from Partner via Regional Office,Refined polygon,,0.24030,0.00218,-3.87727,-80.06119,26773556.5600586,26649.8110977762
5137,6311,14537,South America,Ecuador,ECU,Cajas-Mazn,Cajas-Mazn,EC063,-2.84000,-79.23000,31844,Whole,3,confirmed,,,,"Gill Bunting, BirdLife International",2009/10/09,,,-1,IBA Directory Process,Recieved from Partner via Regional Office,Refined polygon,,1.10934,0.02513,-2.84656,-79.23248,300185112.796875,119672.928286096
5138,6312,14538,South America,Ecuador,ECU,Reserva Ecolgica Manglares-Churute,Reserva Ecolgica Manglares-Churute,EC029,-2.48000,-79.72000,49984,Whole,1,confirmed,,,,"Gill Bunting, BirdLife International",2009/10/09,,,-1,IBA Directory Process,Recieved from Partner via Regional Office,Refined polygon,,1.33647,0.04052,-2.48694,-79.72811,498119751.696777,148995.521083095
5139,6313,14539,South America,Ecuador,ECU,Parque Nacional Machalilla y alrededores,Parque Nacional Machalilla y alrededores,EC017,-1.52000,-80.70000,60000,Unknown,2,confirmed,confirmed,,,"Gill Bunting, BirdLife International",2009/10/09,,,-1,IBA Directory Process,Recieved from Partner via Regional Office,Refined polygon,,1.24661,0.04853,-1.50678,-80.71173,595659341.320801,148200.410865275
5140,6314,14540,South America,Ecuador,ECU,Arajuno-Alto Napo,Arajuno-Alto Napo,EC094,-1.06667,-77.60000,3115,Unknown,2,confirmed,,,,"Gill Bunting, BirdLife International",2009/10/09,,,-1,IBA Directory Process,Recieved from Partner via Regional Office,Refined polygon,,0.38065,0.00443,-1.07968,-77.60688,52362996.0888672,45262.3537749748
5141,6315,14541,South America,Ecuador,ECU,Reserva Tapichalaca,Tapichalaca Reserve (Reserva Tapichalaca IBA),EC088,-4.48333,-79.13333,2000,Whole,1,confirmed,confirmed,confirmed,,"Gill Bunting, BirdLife International",2009/10/09,,,-1,IBA Directory Process,Recieved from Partner via Regional Office,Refined polygon,,0.21813,0.00159,-4.48502,-79.12845,10612177.2275391,21836.2351632821
5142,6316,14542,South America,Ecuador,ECU,Parque Nacional Llanganates,Parque Nacional Llanganates,EC056,-1.13000,-78.24000,219707,Whole,1,confirmed,,,,"Gill Bunting, BirdLife International",2009/10/09,,,-1,IBA Directory Process,Recieved from Partner via Regional Office,Refined polygon,,2.78409,0.17849,-1.13039,-78.24212,2200049454.63232,309179.59513634
5143,6317,14543,South America,Ecuador,ECU,Parque Nacional Podocarpus,Parque Nacional Podocarpus,EC085,-4.27000,-79.00000,147400,Unknown,2,confirmed,,,,"Gill Bunting, BirdLife International",2009/10/09,,,-1,IBA Directory Process,Recieved from Partner via Regional Office,Refined polygon,,2.62428,0.11924,-4.27830,-79.00922,1442197630.7417,294353.485567026
5144,6318,14544,South America,Ecuador,ECU,Bosque Protector Molleturo Mullopungo,Bosque Protector Molleturo Mullopungo,EC032,-2.66667,-79.30000,97500,Whole,2,confirmed,,,,"Gill Bunting, BirdLife International",2009/10/09,,,-1,IBA Directory Process,Recieved from Partner via Regional Office,Refined polygon,,3.23739,0.07909,-2.66537,-79.30131,26483665.3071289,336967.876716566
5145,6319,14545,South America,Ecuador,ECU,Reserva Comunal Bosque de Angashcola,Reserva Comunal Bosque de Angashcola,EC087,-4.56000,-79.36000,2000,Whole,2,confirmed,,,,"Gill Bunting, BirdLife International",2009/10/09,,,-1,IBA Directory Process,Recieved from Partner via Regional Office,Refined polygon,,0.20181,0.00158,-4.56118,-79.36068,5167745.17285156,15891.6444646575
5146,6320,14546,South America,Ecuador,ECU,Bosque Protector Moya-Moln,Bosque Protector Moya-Moln,EC066,-3.08333,-78.71667,26270,Unknown,2,confirmed,,,,"Gill Bunting, BirdLife International",2009/10/09,,,-1,IBA Directory Process,Recieved from Partner via Regional Office,Refined polygon,,0.64401,0.00985,-3.08907,-78.72591,73572808.9453125,111127.723906342
5147,6321,14547,South America,Ecuador,ECU,Bajo Napo,Bajo Napo,EC092,-0.63000,-75.77000,77700,Unknown,2,confirmed,,,,"Gill Bunting, BirdLife International",2009/10/09,,,-1,IBA Directory Process,Recieved from Partner via Regional Office,Refined polygon,,2.73932,0.17150,-0.62826,-75.83581,2118287501.38965,333135.828418011
5148,6322,14548,South America,Ecuador,ECU,Ro Toachi-Chiriboga,Ro Toachi-Chiriboga,EC044,-0.21667,-78.80000,68000,Unknown,5,confirmed,,,,"Gill Bunting, BirdLife International",2009/10/09,,,-1,IBA Directory Process,Recieved from Partner via Regional Office,Refined polygon,,1.30320,0.05528,-0.37563,-78.77590,437083586.583984,251623.491347754
5149,6323,14550,South America,Ecuador,ECU,Territorio tnico Aw y alrededores,Territorio tnico Aw y alrededores,EC002,1.07117,-78.51200,190000,Unknown,2,confirmed,,,,"Gill Bunting, BirdLife International",2009/10/09,,,-1,IBA Directory Process,Recieved from Partner via Regional Office,Refined polygon,,2.72330,0.15403,1.03891,-78.47021,555914967.569824,573194.577474382
5150,6324,14551,South America,Ecuador,ECU,Bosque Protector Cerro Blanco,Bosque Protector Cerro Blanco,EC026,-2.11667,-80.08333,15700,Unknown,1,confirmed,,,,"Gill Bunting, BirdLife International",2009/10/09,,,-1,IBA Directory Process,Recieved from Partner via Regional Office,Refined polygon,,0.58012,0.01273,-2.09917,-80.08012,146864451.202148,91626.4161208787
5151,6325,14553,South America,Ecuador,ECU,Tiquibuzo,Tiquibuzo,EC060,-2.01667,-79.08333,5000,Little/none,0,confirmed,,,,"Gill Bunting, BirdLife International",2009/10/09,,,-1,IBA Directory Process,Recieved from Partner via Regional Office,Refined polygon,,0.48780,0.00390,-2.03959,-79.09549,19063589.0219727,33567.6805717215
5152,6326,14554,South America,Ecuador,ECU,Cordillera de Kutuk,Cordillera de Kutuk,EC082,-2.72000,-78.01000,311500,Whole,1,confirmed,confirmed,confirmed,,"Gill Bunting, BirdLife International",2009/10/09,,,-1,IBA Directory Process,Recieved from Partner via Regional Office,Refined polygon,,5.91136,0.15098,-2.58742,-78.02361,9897246.61083984,288295.511877841
5153,6327,14555,South America,Ecuador,ECU,Parque Nacional Cotopaxi,Parque Nacional Cotopaxi,EC055,-0.64000,-78.45000,33393,Whole,1,confirmed,,,,"Gill Bunting, BirdLife International",2009/10/09,,,-1,IBA Directory Process,Recieved from Partner via Regional Office,Refined polygon,,0.81678,0.02913,-0.64846,-78.45959,356340966.493652,100210.202048938
5154,6328,14557,South America,Ecuador,ECU,Corredor Ecolgico Llanganates-Sangay,Corredor Ecolgico Llanganates-Sangay,EC057,-1.43333,-78.16667,42052,Whole,1,confirmed,,,,"Gill Bunting, BirdLife International",2009/10/09,,,-1,IBA Directory Process,Recieved from Partner via Regional Office,Refined polygon,,1.16281,0.03846,-1.43582,-78.17667,466437169.022949,186127.035960282
5155,6329,14559,South America,Ecuador,ECU,Reserva de Produccin Faunstica Cuyabeno,Reserva de Produccin Faunstica Cuyabeno,EC091,-0.31000,-75.78000,603380,Whole,1,confirmed,,,,"Gill Bunting, BirdLife International",2009/10/09,,,-1,IBA Directory Process,Recieved from Partner via Regional Office,Refined polygon,,5.70743,0.47058,-0.31588,-75.78838,5836387582.40625,635797.379060184
5156,6330,14562,South America,Ecuador,ECU,Cerro Mutiles,Cerro Mutiles,EC006,0.90000,-79.61667,30,Whole,1,confirmed,,,,"Gill Bunting, BirdLife International",2009/10/09,,,-1,IBA Directory Process,Recieved from Partner via Regional Office,Refined polygon,,0.02604,0.00005,0.90184,-79.61633,558967.75,2890.4306892898
5157,6331,14563,South America,Ecuador,ECU,Engunga,Engunga,EC022,-2.33333,-80.55000,2000,Little/none,0,confirmed,,,,"Gill Bunting, BirdLife International",2009/10/09,,,-1,IBA Directory Process,Recieved from Partner via Regional Office,Refined polygon,,0.19025,0.00158,-2.36636,-80.54181,19043806.4545898,25555.2289046672
5158,6332,14565,South America,Ecuador,ECU,Ro Conambo-Bobonaza,Ro Conambo-Bobonaza,EC095,-1.58333,-77.75000,870000,Little/none,0,confirmed,,,,"Gill Bunting, BirdLife International",2009/10/09,,,-1,IBA Directory Process,Recieved from Partner via Regional Office,Refined polygon,,4.83429,0.70844,-1.84911,-76.95823,8750041870.87256,572905.694906714
5159,6333,14566,South America,Ecuador,ECU,Intag-Toisn,Intag-Toisn,EC038,0.34000,-78.62000,34000,Unknown,4,confirmed,,,,"Gill Bunting, BirdLife International",2009/10/09,,,-1,IBA Directory Process,Recieved from Partner via Regional Office,Refined polygon,,1.26358,0.04932,0.38621,-78.51225,217590273.515137,317117.150513667
5160,6334,14567,South America,Ecuador,ECU,Parque Nacional Sangay,Parque Nacional Sangay,EC061,-2.11000,-78.39000,517725,Whole,2,confirmed,,,,"Gill Bunting, BirdLife International",2009/10/09,,,-1,IBA Directory Process,Recieved from Partner via Regional Office,Refined polygon,,4.72576,0.42086,-2.11360,-78.39069,5175842295.57471,559278.947087134
5161,6335,14569,South America,Ecuador,ECU,Selva Alegre,Selva Alegre,EC069,-3.63333,-79.36667,10000,Little/none,0,confirmed,,,,"Gill Bunting, BirdLife International",2009/10/09,,,-1,IBA Directory Process,Recieved from Partner via Regional Office,Refined polygon,,0.83070,0.00919,-3.64055,-79.35974,40269256.418457,82171.8731914403
5162,6336,14571,South America,Ecuador,ECU,Territorio Achuar,Territorio Achuar,EC096,-2.33000,-77.11000,700000,Little/none,0,confirmed,,,,"Gill Bunting, BirdLife International",2009/10/09,,,-1,IBA Directory Process,Recieved from Partner via Regional Office,Refined polygon,,5.84385,0.62638,-2.35361,-77.02107,7735202379.24805,652257.076369883
5163,6337,14574,South America,Ecuador,ECU,La Bonita-Santa Brbara,La Bonita-Santa Brbara,EC047,0.58000,-77.53000,12000,Little/none,0,confirmed,,,,"Gill Bunting, BirdLife International",2009/10/09,,,-1,IBA Directory Process,Recieved from Partner via Regional Office,Refined polygon,,0.61181,0.00989,0.55412,-77.52787,107925405.607422,69679.4912776974
5164,6338,14577,South America,Ecuador,ECU,Bosque Protector Cashca Totoras,Cashca Totoras Protected Forest (Bosque Protector Cashca Totoras IBA),EC058,-1.75000,-78.93333,6940,Whole,1,confirmed,confirmed,confirmed,,"Gill Bunting, BirdLife International",2009/10/09,,,-1,IBA Directory Process,Recieved from Partner via Regional Office,Refined polygon,,0.38078,0.00532,-1.74398,-78.92560,36851251.1298828,35577.0547142509
5165,6339,14578,South America,Ecuador,ECU,Corredor Awacachi,Corredor Awacachi,EC003,0.88333,-78.58333,25000,Unknown,1,confirmed,,,,"Gill Bunting, BirdLife International",2009/10/09,,,-1,IBA Directory Process,Recieved from Partner via Regional Office,Refined polygon,,0.91005,0.02142,0.87382,-78.59317,75117250.621582,118731.933185503
5166,6340,14579,South America,Ecuador,ECU,Volcn Atacazo,Volcn Atacazo,EC054,-0.36667,-78.61667,8500,Little/none,0,confirmed,,,,"Gill Bunting, BirdLife International",2009/10/09,,,-1,IBA Directory Process,Recieved from Partner via Regional Office,Refined polygon,,0.65639,0.00714,-0.34702,-78.61808,87020300.2875977,77244.8660813621
5167,6341,14580,South America,Ecuador,ECU,Reserva Ecolgica Los Illinizas y alrededores,Reserva Ecolgica Los Illinizas y alrededores,EC045,-0.67000,-78.94000,150900,Unknown,6,confirmed,,,,"Gill Bunting, BirdLife International",2009/10/09,,,-1,IBA Directory Process,Recieved from Partner via Regional Office,Refined polygon,,3.56775,0.09697,-0.67012,-78.94786,1120557234.40039,425258.581349207
5168,6342,14582,South America,Ecuador,ECU,Palanda,Palanda,EC089,-4.65000,-79.13333,12800,Little/none,0,confirmed,,,,"Gill Bunting, BirdLife International",2009/10/09,,,-1,IBA Directory Process,Recieved from Partner via Regional Office,Refined polygon,,0.81220,0.00768,-4.66086,-79.11664,55110977.8623047,87581.2700891722
5169,6343,14583,South America,Ecuador,ECU,Lagunas de Ecuasal-Salinas,Lagunas de Ecuasal-Salinas,EC020,-2.22000,-80.97000,500,Little/none,0,confirmed,,,,"Gill Bunting, BirdLife International",2009/10/09,,,0,IBA Directory Process,Recieved from Partner via Regional Office,Refined polygon,Y,0.09847,0.00041,-2.22939,-80.95831,4994972.99316406,10920.4225560927
5170,6344,14586,South America,Ecuador,ECU,Reserva Yunguilla,Yunguilla Reserve (Reserva Yunguilla),EC067,-3.18333,-79.28333,60,Whole,1,confirmed,confirmed,confirmed,,"Gill Bunting, BirdLife International",2009/10/09,,,-1,IBA Directory Process,Recieved from Partner via Regional Office,Refined polygon,,0.10839,0.00061,-3.18931,-79.27815,7526399.85253906,12003.3036299196
5171,6345,14588,South America,Ecuador,ECU,Cinaga de La Segua,Cinaga de La Segua,EC013,-0.70000,-80.18333,1742,Whole,1,confirmed,,,,"Gill Bunting, BirdLife International",2009/10/09,,,-1,IBA Directory Process,Recieved from Partner via Regional Office,Refined polygon,,0.19411,0.00145,-0.71061,-80.19399,17802417.2729492,21540.3383798641
5172,6346,14591,South America,Ecuador,ECU,Cazaderos-Mangaurquillo,Cazaderos-Mangaurquillo,EC080,-4.11667,-80.40000,49500,Little/none,0,confirmed,,,,"Gill Bunting, BirdLife International",2009/10/09,,,-1,IBA Directory Process,Recieved from Partner via Regional Office,Refined polygon,,1.05836,0.04111,-4.09406,-80.35425,503561548.768555,129679.952122279
5173,6347,14596,South America,Ecuador,ECU,Zumba-Chito,Zumba-Chito,EC090,-4.85000,-79.11667,14200,Little/none,0,confirmed,,,,"Gill Bunting, BirdLife International",2009/10/09,,,-1,IBA Directory Process,Recieved from Partner via Regional Office,Refined polygon,,1.02696,0.01137,-4.86840,-79.09336,77048643.8549805,108865.791899759
5174,6348,14597,South America,Ecuador,ECU,Reserva Ecolgica Antisana,Reserva Ecolgica Antisana,EC052,-0.58000,-78.03000,120000,Whole,1,confirmed,,,,"Gill Bunting, BirdLife International",2009/10/09,,,-1,IBA Directory Process,Recieved from Partner via Regional Office,Refined polygon,,1.77990,0.07964,-0.56419,-78.06827,982062636.825195,197672.200437991
5175,6349,14598,South America,Ecuador,ECU,Lago de Colta,Lago de Colta,EC059,-1.73333,-78.75000,100,Little/none,0,confirmed,,,,"Gill Bunting, BirdLife International",2009/10/09,,,-1,IBA Directory Process,Recieved from Partner via Regional Office,Refined polygon,,0.04443,0.00010,-1.73674,-78.75768,1174992.17431641,4920.36337711257
5176,6350,14599,South America,Ecuador,ECU,Tonchige-Mompiche,Tonchige-Mompiche,EC007,0.66667,-80.01667,45000,Unknown,3,confirmed,,,,"Gill Bunting, BirdLife International",2009/10/09,,,-1,IBA Directory Process,Recieved from Partner via Regional Office,Refined polygon,,1.01162,0.03749,0.70032,-79.99357,458239110.693848,119699.936433261
5177,6351,14600,South America,Ecuador,ECU,Bosque Protector Colambo-Yacuri,Bosque Protector Colambo-Yacuri,EC086,-4.65000,-79.37000,73300,Unknown,3,confirmed,,,,"Gill Bunting, BirdLife International",2009/10/09,,,-1,IBA Directory Process,Recieved from Partner via Regional Office,Refined polygon,,4.23189,0.05183,-4.55588,-79.30928,566663223.944336,421092.105490722
5178,6352,14601,South America,Ecuador,ECU,Acanam-Guashapamba-Aguirre,Acanam-Guashapamba-Aguirre,EC068,-3.60000,-79.25000,1900,Unknown,3,confirmed,,,,"Gill Bunting, BirdLife International",2009/10/09,,,-1,IBA Directory Process,Recieved from Partner via Regional Office,Refined polygon,,0.21664,0.00160,-3.59224,-79.25387,5133122.32421875,23981.8688025534
5179,6353,14602,South America,Ecuador,ECU,Cordillera del Cndor,Cordillera del Cndor,EC083,-3.87000,-78.52000,97000,Little/none,4,confirmed,,,,"Gill Bunting, BirdLife International",2009/10/09,,,-1,IBA Directory Process,Recieved from Partner via Regional Office,Refined polygon,,6.48727,0.20571,-3.54686,-78.39586,701444766.716309,923300.623545509
5180,6354,14603,South America,Ecuador,ECU,Yanuncay-Yanasacha,Yanuncay-Yanasacha,EC064,-2.94000,-79.09000,38100,Unknown,2,confirmed,,,,"Gill Bunting, BirdLife International",2009/10/09,,,-1,IBA Directory Process,Recieved from Partner via Regional Office,Refined polygon,,1.11381,0.03154,-3.00293,-79.22508,276182458.741699,172847.072604344
5181,6355,14604,South America,Ecuador,ECU,Refugio de Vida Silvestre Pasochoa,Refugio de Vida Silvestre Pasochoa,EC053,-0.43333,-78.50000,3900,Some,1,confirmed,,,,"Gill Bunting, BirdLife International",2009/10/09,,,-1,IBA Directory Process,Recieved from Partner via Regional Office,Refined polygon,,0.13473,0.00054,-0.43741,-78.49199,6630840.93310547,14946.0692137036
5182,6356,14605,South America,Ecuador,ECU,Daucay,Daucay,EC070,-3.41000,-79.79000,1300,Little/none,0,confirmed,,,,"Gill Bunting, BirdLife International",2009/10/09,,,-1,IBA Directory Process,Recieved from Partner via Regional Office,Refined polygon,,0.12911,0.00108,-3.41396,-79.78845,10136247.9775391,23820.9103494785
5183,6357,14607,South America,Ecuador,ECU,Humedales de Pacoa,Humedales de Pacoa,EC019,-2.08333,-80.73333,800,Little/none,0,confirmed,,,,"Gill Bunting, BirdLife International",2009/10/09,,,0,IBA Directory Process,Recieved from Partner via Regional Office,Refined polygon,Y,0.12216,0.00067,-2.08276,-80.72826,8209093.31933594,13920.2676504344
5184,6358,14608,South America,Ecuador,ECU,Parque Nacional Sumaco-Napo Galeras,Parque Nacional Sumaco-Napo Galeras,EC050,-0.39000,-77.55000,215249,Whole,3,confirmed,,,,"Gill Bunting, BirdLife International",2009/10/09,,,-1,IBA Directory Process,Recieved from Partner via Regional Office,Refined polygon,,2.82391,0.16894,-0.42203,-77.55099,2085186954.23633,314916.13287696
5185,6359,14609,South America,Ecuador,ECU,Manglares del golfo de Guayaquil,Manglares del golfo de Guayaquil,EC030,-2.72000,-80.00000,200000,Unknown,1,confirmed,,,,"Gill Bunting, BirdLife International",2009/10/09,,,-1,IBA Directory Process,Recieved from Partner via Regional Office,Refined polygon,,2.15086,0.17539,-2.65596,-80.02828,2155324418.62939,241601.889742588
5186,6360,14610,South America,Ecuador,ECU,Reserva Ecolgica Cayambe-Coca,Reserva Ecolgica Cayambe-Coca,EC049,-0.02000,-77.83000,403103,Whole,1,confirmed,,,,"Gill Bunting, BirdLife International",2009/10/09,,,-1,IBA Directory Process,Recieved from Partner via Regional Office,Refined polygon,,3.04913,0.30099,-0.02858,-77.83687,3661781836.22314,395101.896868363
5187,6361,14611,South America,Ecuador,ECU,Reserva Natural Tumbesia-La Ceiba-Zapotillo,Reserva Natural Tumbesia-La Ceiba-Zapotillo,EC081,-4.26667,-80.33333,17350,Unknown,1,confirmed,,,,"Gill Bunting, BirdLife International",2009/10/09,,,-1,IBA Directory Process,Recieved from Partner via Regional Office,Refined polygon,,0.59098,0.01566,-4.28432,-80.32560,192078788.442383,65456.4683759492
5189,6363,14614,South America,Ecuador,ECU,Verde-nzole-Cayapas-Canand,Verde-nzole-Cayapas-Canand,EC005,0.71000,-79.04000,205567,Unknown,2,confirmed,,,,"Gill Bunting, BirdLife International",2009/10/09,,,-1,IBA Directory Process,Recieved from Partner via Regional Office,Refined polygon,,2.42954,0.16776,0.69664,-79.17923,1771098378.33838,335282.355669446
5190,6364,14615,South America,Ecuador,ECU,Cayapas-Santiago-Wimb,Cayapas-Santiago-Wimb,EC004,0.86667,-78.73333,60000,Little/none,0,confirmed,,,,"Gill Bunting, BirdLife International",2009/10/09,,,-1,IBA Directory Process,Recieved from Partner via Regional Office,Refined polygon,,1.59348,0.04993,0.86860,-78.81398,471627549.522461,249429.545026106
5191,6365,14616,South America,Ecuador,ECU,Mataje-Cayapas-Santiago,Mataje-Cayapas-Santiago,EC001,1.30000,-78.90000,70000,Unknown,3,confirmed,,,,"Gill Bunting, BirdLife International",2009/10/09,,,-1,IBA Directory Process,Recieved from Partner via Regional Office,Refined polygon,,1.39800,0.05804,1.24596,-78.89616,714623511.113281,155059.37002703
5192,6366,14617,South America,Ecuador,ECU,Isla Santa Clara,Isla Santa Clara,EC031,-3.16667,-80.43333,46,Whole,2,confirmed,,,,"Gill Bunting, BirdLife International",2009/10/09,,,0,IBA Directory Process,Recieved from Partner via Regional Office,Refined polygon,Y,0.07197,0.00027,-3.17365,-80.43413,3347242.81738281,7970.43702540898
5193,6367,14620,South America,Ecuador,ECU,Reserva Ecolgica Cotacachi-Cayapas,Reserva Ecolgica Cotacachi-Cayapas,EC037,0.57000,-78.67000,345275,Unknown,2,confirmed,,,,"Gill Bunting, BirdLife International",2009/10/09,,,-1,IBA Directory Process,Recieved from Partner via Regional Office,Refined polygon,,5.04024,0.27990,0.57974,-78.68187,2595667611.54883,600019.70937601
5194,6368,14624,South America,Ecuador,ECU,Archipilago de Jambel,Archipilago de Jambel,EC034,-3.37000,-80.14000,30000,Little/none,0,confirmed,,,,"Gill Bunting, BirdLife International",2009/10/09,,,-1,IBA Directory Process,Recieved from Partner via Regional Office,Refined polygon,,0.88438,0.02445,-3.35055,-80.14269,300344315.724609,98038.6551396045
5195,6369,14625,South America,Ecuador,ECU,Bosque Protector Chongn-Colonche,Bosque Protector Chongn-Colonche,EC025,-2.11667,-80.30000,44000,Whole,1,confirmed,,,,"Gill Bunting, BirdLife International",2009/10/09,,,-1,IBA Directory Process,Recieved from Partner via Regional Office,Refined polygon,,2.31681,0.02416,-2.10991,-80.29067,277267028.560547,273845.216579697
5196,6370,14626,South America,Ecuador,ECU,Catacocha,Catacocha,EC072,-4.05000,-79.66667,3500,Little/none,0,confirmed,,,,"Gill Bunting, BirdLife International",2009/10/09,,,-1,IBA Directory Process,Recieved from Partner via Regional Office,Refined polygon,,0.25988,0.00301,-4.04665,-79.63613,10067155.2333984,20852.9358149174
5197,6371,14627,South America,Ecuador,ECU,Alamor-Celica,Alamor-Celica,EC075,-4.00000,-79.96667,6500,Little/none,0,confirmed,,,,"Gill Bunting, BirdLife International",2009/10/09,,,-1,IBA Directory Process,Recieved from Partner via Regional Office,Refined polygon,,0.42071,0.00526,-4.00000,-79.97242,64521580.9575195,46626.7453133762
5198,6372,14629,South America,Ecuador,ECU,Cinagas de Guayaquil,Cinagas de Guayaquil,EC028,-2.26667,-79.75000,30000,Little/none,0,confirmed,,,,"Gill Bunting, BirdLife International",2009/10/09,,,-1,IBA Directory Process,Recieved from Partner via Regional Office,Refined polygon,,0.81107,0.02717,-2.28399,-79.75656,329005458.161621,112014.949059118
5199,6373,14631,South America,Ecuador,ECU,Isla Santay,Isla Santay,EC027,-2.21667,-79.85000,4705,Whole,1,confirmed,,,,"Gill Bunting, BirdLife International",2009/10/09,,,-1,IBA Directory Process,Recieved from Partner via Regional Office,Refined polygon,,0.17179,0.00161,-2.21814,-79.85234,19831212.3886719,19038.5959134069
5200,6374,14632,South America,Ecuador,ECU,Cordillera de Huacamayos-San Isidro-Sierra Azul,Cordillera de Huacamayos-San Isidro-Sierra Azul,EC051,-0.80000,-77.95000,65000,Unknown,4,confirmed,,,,"Gill Bunting, BirdLife International",2009/10/09,,,-1,IBA Directory Process,Recieved from Partner via Regional Office,Refined polygon,,1.85124,0.05301,-0.79897,-77.93799,653750119.611328,205581.502702155
5201,6375,14633,South America,Ecuador,ECU,Refugio de Vida Silvestre Isla Corazn e Isla Fragata,Refugio de Vida Silvestre Isla Corazn e Isla Fragata,EC014,-0.63333,-80.34000,700,Whole,1,confirmed,,,,"Gill Bunting, BirdLife International",2009/10/09,,,0,IBA Directory Process,Recieved from Partner via Regional Office,Refined polygon,Y,0.15132,0.00062,-0.64793,-80.31770,7613655.14599609,16809.8420762209
5203,6377,14636,South America,Ecuador,ECU,Montaas de Zapote-Najda,Montaas de Zapote-Najda,EC065,-2.91667,-78.63333,27100,Little/none,0,confirmed,,,,"Gill Bunting, BirdLife International",2009/10/09,,,-1,IBA Directory Process,Recieved from Partner via Regional Office,Refined polygon,,0.57295,0.00770,-2.90091,-78.63190,94724364.9936523,63510.7334114033
5204,6378,14637,South America,Ecuador,ECU,Abras de Mantequilla,Abras de Mantequilla,EC024,-1.46667,-79.58333,22500,Whole,1,confirmed,,,,"Gill Bunting, BirdLife International",2009/10/09,,,-1,IBA Directory Process,Recieved from Partner via Regional Office,Refined polygon,,1.15975,0.04429,-1.47214,-79.57776,544803458.976562,129191.725864788
5206,6380,14641,South America,Ecuador,ECU,Gran Yasun,Gran Yasun,EC093,-1.11000,-76.05000,1600000,Whole,3,confirmed,,,,"Gill Bunting, BirdLife International",2009/10/09,,,-1,IBA Directory Process,Recieved from Partner via Regional Office,Refined polygon,,8.57989,1.32630,-1.10484,-76.22628,16421940199.0908,959371.171235437
5207,6381,14643,South America,Ecuador,ECU,Valle de Guayllabamba,Valle de Guayllabamba,EC107,0.02000,-78.41000,23000,Unknown,1,confirmed,,,,"Gill Bunting, BirdLife International",2009/10/09,,,-1,IBA Directory Process,Recieved from Partner via Regional Office,Refined polygon,,0.94716,0.01858,0.02236,-78.38754,225887301.512207,131095.844583162
5208,6382,14644,South America,Ecuador,ECU,La Tagua,La Tagua,EC074,-3.96000,-80.16000,4000,Little/none,0,confirmed,,,,"Gill Bunting, BirdLife International",2009/10/09,,,-1,IBA Directory Process,Recieved from Partner via Regional Office,Refined polygon,,0.28544,0.00533,-3.95512,-80.16073,65418238.0673828,31638.8462895194
5209,6383,14645,South America,Ecuador,ECU,Bosque Protector Cerro Pata de Pjaro,Bosque Protector Cerro Pata de Pjaro,EC009,0.03333,-79.98333,4333,Whole,1,confirmed,,,,"Gill Bunting, BirdLife International",2009/10/09,,,-1,IBA Directory Process,Recieved from Partner via Regional Office,Refined polygon,,1.02841,0.00353,0.01869,-79.98333,43457121.6972656,114118.122537967
5210,6384,14647,South America,Ecuador,ECU,Utuana-Bosque de Hanne,Utuana-Bosque de Hanne,EC079,-4.36667,-79.75000,281,Unknown,1,confirmed,,,,"Gill Bunting, BirdLife International",2009/10/09,,,-1,IBA Directory Process,Recieved from Partner via Regional Office,Refined polygon,,0.06691,0.00027,-4.37268,-79.74521,0,
5211,6385,14648,South America,Ecuador,ECU,Tambo Negro,Tambo Negro,EC078,-4.40000,-79.85000,4091,Little/none,0,confirmed,,,,"Gill Bunting, BirdLife International",2009/10/09,,,-1,IBA Directory Process,Recieved from Partner via Regional Office,Refined polygon,,0.17727,0.00157,-4.38978,-79.85109,16303480.1235352,24914.8250907699
5212,6386,14649,South America,Ecuador,ECU,Bosque Protector Jatumpamba-Jorupe,Bosque Protector Jatumpamba-Jorupe,EC077,-4.30000,-79.85000,8000,Whole,2,confirmed,,,,"Gill Bunting, BirdLife International",2009/10/09,,,-1,IBA Directory Process,Recieved from Partner via Regional Office,Refined polygon,,0.59135,0.00656,-4.30279,-79.85104,592300.341308594,32772.8307130916
5213,6387,14650,South America,Ecuador,ECU,Can del ro Catamayo,Can del ro Catamayo,EC076,-4.21667,-79.91667,28000,Unknown,1,confirmed,,,,"Gill Bunting, BirdLife International",2009/10/09,,,-1,IBA Directory Process,Recieved from Partner via Regional Office,Refined polygon,,0.82124,0.02232,-4.23706,-80.00551,32714096.4345703,145538.678867903
5215,6389,14653,South America,Ecuador,ECU,Represa Velasco Ibarra,Represa Velasco Ibarra,EC021,-2.26667,-80.88333,424,Little/none,0,confirmed,,,,"Gill Bunting, BirdLife International",2009/10/09,,,-1,IBA Directory Process,Recieved from Partner via Regional Office,Refined polygon,,0.09335,0.00032,-2.26209,-80.88156,3890612.33447266,10351.5255465954
5216,6390,14654,South America,Ecuador,ECU,Cordillera El Blsamo,Cordillera El Blsamo,EC015,-0.68000,-80.46000,50,Unknown,1,confirmed,,,,"Gill Bunting, BirdLife International",2009/10/09,,,-1,IBA Directory Process,Recieved from Partner via Regional Office,Refined polygon,,0.50757,0.00953,-0.69703,-80.45239,117236320.606934,56227.270066979
5217,6391,14655,South America,Ecuador,ECU,Cerro de Hayas-Naranjal,Cerro de Hayas-Naranjal,EC033,-2.80000,-79.57000,2500,Most,1,confirmed,,,,"Gill Bunting, BirdLife International",2009/10/09,,,-1,IBA Directory Process,Recieved from Partner via Regional Office,Refined polygon,,0.36567,0.00210,-2.78831,-79.60297,6151443.08740234,18344.2698536818
5218,6392,14656,South America,Ecuador,ECU,Hacienda Camarones,Hacienda Camarones,EC010,-0.10000,-80.16667,4000,Unknown,1,confirmed,,,,"Gill Bunting, BirdLife International",2009/10/09,,,-1,IBA Directory Process,Recieved from Partner via Regional Office,Refined polygon,,0.18325,0.00208,-0.10091,-80.15802,25611866.6762695,20324.9203514057
5219,6393,14659,South America,Ecuador,ECU,Tierras altas de Isabela,Tierras altas de Isabela,EC104,-0.41000,-91.12000,120000,Whole,4,confirmed,,,,"Gill Bunting, BirdLife International",2009/10/09,,,0,IBA Directory Process,Recieved from Partner via Regional Office,Refined polygon,Y,3.43194,0.17548,-0.58406,-91.18909,2228394345.68896,386617.540629935
5220,6394,14660,South America,Ecuador,ECU,Tierras altas de Santiago,Tierras altas de Santiago,EC106,-0.22000,-90.77000,10500,Whole,4,confirmed,,,,"Gill Bunting, BirdLife International",2009/10/09,,,0,IBA Directory Process,Recieved from Partner via Regional Office,Refined polygon,Y,0.42822,0.01001,-0.22613,-90.76576,126830444.790527,48210.6473981793
5221,6395,14661,South America,Ecuador,ECU,Tierras altas de Santa Cruz,Tierras altas de Santa Cruz,EC101,-0.64000,-90.38000,27800,Whole,4,confirmed,,,,"Gill Bunting, BirdLife International",2009/10/09,,,0,IBA Directory Process,Recieved from Partner via Regional Office,Refined polygon,Y,0.72771,0.03667,-0.63637,-90.36722,461568382.640137,96849.8431395119
5222,6396,14662,South America,Ecuador,ECU,Puerto Ayora,Puerto Ayora,EC102,-0.73333,-90.30000,160,Whole,4,confirmed,,,,"Gill Bunting, BirdLife International",2009/10/09,,,0,IBA Directory Process,Recieved from Partner via Regional Office,Refined polygon,Y,0.17068,0.00115,-0.73690,-90.30414,14570302.9765625,19184.892859242
5223,6397,14663,South America,Ecuador,ECU,Isla Floreana,Isla Floreana,EC100,-1.30000,-90.43333,17253,Whole,4,confirmed,confirmed,confirmed,,"Gill Bunting, BirdLife International",2009/10/09,,,0,IBA Directory Process,Recieved from Partner via Regional Office,Refined polygon,Y,0.49947,0.01400,-1.29084,-90.43441,176949871.048828,56166.2031342719
5224,6398,14664,South America,Ecuador,ECU,Champion y Gardner de Floreana,Champion y Gardner de Floreana,EC099,-1.28000,-90.35000,76,Whole,4,confirmed,confirmed,confirmed,,"Gill Bunting, BirdLife International",2009/10/09,,,-1,IBA Directory Process,Recieved from Partner via Regional Office,Refined polygon,,0.04734,0.00009,-1.31732,-90.30364,1074322.3046875,5320.65093394276
5225,6399,14665,South America,Ecuador,ECU,Isla Espaola,Isla Espaola,EC098,-1.38000,-89.66000,6048,Whole,4,confirmed,confirmed,confirmed,,"Gill Bunting, BirdLife International",2009/10/09,,,0,IBA Directory Process,Recieved from Partner via Regional Office,Refined polygon,Y,0.33918,0.00535,-1.37578,-89.67430,67273139.7841797,38089.9385681478
5226,6400,14666,South America,Ecuador,ECU,Isla San Cristbal,Isla San Cristbal,EC097,-0.83000,-89.44000,55808,Whole,4,confirmed,confirmed,confirmed,,"Gill Bunting, BirdLife International",2009/10/09,,,0,IBA Directory Process,Recieved from Partner via Regional Office,Refined polygon,Y,1.16447,0.04470,-0.82570,-89.42840,561479490.826416,135135.553230188
6918,8675,19127,South America,Ecuador,ECU,Humedales del Sur de Isabela,Humedales del Sur de Isabela,EC103,-0.95000,-91.01667,872,Whole,4,confirmed,,,,"Gill Bunting, BirdLife International",2009/10/09,,,0,IBA Directory Process,Recieved from Partner via Regional Office,Refined polygon,Y,0.77656,0.02054,-0.97706,-91.01859,260469591.532715,88172.7604598301
6919,8676,19128,South America,Ecuador,ECU,reas costeras de Fernandina y del occidente de Isabela,reas costeras de Fernandina y del occidente de Isabela,EC105,-0.31667,-91.36667,140000,Whole,4,confirmed,confirmed,confirmed,,"Gill Bunting, BirdLife International",2009/10/09,,,0,IBA Directory Process,Recieved from Partner via Regional Office,Refined polygon,Y,4.00912,0.50042,-0.40611,-91.54414,6369116066.79248,451965.727054993
14744,0,14639,South America,Ecuador,ECU,Mindo y Estribaciones Occidentales del volcn Pichincha,Mindo and western foothills of Volcan Pichincha (Mindo y Estribaciones Occidentales del volcn Pichincha IBA),EC043,-0.08333,-78.76667,0,Some,11,confirmed,confirmed,confirmed,Partner,"Gill Bunting, BirdLife International",2009/10/09,"Gill Bunting, BirdLife International",2014/04/29,0,Original version provided for IBA Directory replaced in 2014,Similar to original boundary,Refined polygon,,1.83152,0.06780,0.00000,0.00000,741140366.230957,180223.799163563
14747,0,31588,South America,Ecuador,ECU,Mashpi-Pachijal,Mashpi-Pachijal,EC108,0.13333,-78.91667,0,Little/none,2,confirmed,,,Partner,"Gill Bunting, BirdLife International",2014/04/29,,,0,Provided by Partner in 2014,,Refined polygon,,1.30171,0.03010,0.00000,0.00000,128042058.109375,154475.141351171
14748,0,14613,South America,Ecuador,ECU,Ro Caon,Ro Caon,EC040,0.08333,-79.08333,0,Little/none,0,confirmed,,,Partner,"Gill Bunting, BirdLife International",2009/10/09,"Gill Bunting, BirdLife International",2014/04/29,0,Original version provided for IBA Directory replaced in 2014,New version has much larger area than original,Refined polygon,,1.18554,0.03265,0.00000,0.00000,401040773.92041,144450.996679743
14750,0,14652,South America,Ecuador,ECU,Los Bancos-Milpe,Los Bancos-Milpe,EC041,0.03333,-78.90000,0,Unknown,1,confirmed,,,Partner,"Gill Bunting, BirdLife International",2009/10/09,"Gill Bunting, BirdLife International",2014/04/29,0,29/04/2014,New version has much larger area than original,Refined polygon,,0.92354,0.02088,0.00000,0.00000,108371659.928711,126644.203968026
